ROBUSTA-1E (ENSO)       
1 58470U 23185J   24236.14737478  .00032333  00000+0  12382-2 0  9992
2 58470  97.4201 302.2724 0011944  48.5652 311.6611 15.26411739 40347
SITRO-AIS 29            
1 59052U 24039B   24236.14678424  .00044551  00000+0  14240-2 0  9993
2 59052  97.3961 197.7927 0014076 352.2471   7.8550 15.32212852 26837
SITRO-AIS 30            
1 59053U 24039C   24236.14990159  .00044433  00000+0  14267-2 0  9994
2 59053  97.3960 197.7833 0014335 352.8099   7.2935 15.32063781 26828
SITRO-AIS 31            
1 59054U 24039D   24236.20188191  .00043995  00000+0  14038-2 0  9995
2 59054  97.3960 197.8674 0014162 352.5671   7.5359 15.32269963 26850
SITRO-AIS 33            
1 59055U 24039E   24236.18787298  .00045135  00000+0  14344-2 0  9994
2 59055  97.3964 197.8936 0013990 353.5567   6.5492 15.32394892 26845
SITRO-AIS 35            
1 59056U 24039F   24236.18331102  .00044423  00000+0  14122-2 0  9997
2 59056  97.3963 197.8958 0013860 354.1557   5.9520 15.32391052 26841
SITRO-AIS 32            
1 59057U 24039G   24236.19556392  .00042053  00000+0  13434-2 0  9991
2 59057  97.3965 197.8821 0013911 354.0730   6.0345 15.32246830 26842
SITRO-AIS 34            
1 59058U 24039H   24236.18898502  .00045462  00000+0  14452-2 0  9991
2 59058  97.3964 197.8937 0013947 353.8481   6.2587 15.32384645 26846
SITRO-AIS 36            
1 59059U 24039J   24236.17611421  .00046848  00000+0  14832-2 0  9995
2 59059  97.3964 197.9060 0013585 354.3580   5.7507 15.32512583 26849
SITRO-AIS 49            
1 59060U 24039K   24236.17870637  .00045009  00000+0  14302-2 0  9993
2 59060  97.3965 197.9027 0013632 353.7178   6.3891 15.32404890 26848
SITRO-AIS 50            
1 59061U 24039L   24236.16228066  .00042620  00000+0  13453-2 0  9998
2 59061  97.3963 197.9232 0013504 354.2663   5.8422 15.32632438 26843
SITRO-AIS 51            
1 59062U 24039M   24236.16215526  .00043908  00000+0  13847-2 0  9993
2 59062  97.3964 197.9226 0013464 354.5198   5.5894 15.32654842 26842
SITRO-AIS 52            
1 59063U 24039N   24236.15170279  .00044938  00000+0  14121-2 0  9998
2 59063  97.3963 197.9391 0013321 354.5737   5.5358 15.32766640 26841
SITRO-AIS 25            
1 59066U 24039R   24236.19990596  .00008755  00000+0  81616-3 0  9998
2 59066  95.3980 142.7696 0171593 112.1199 249.8337 14.83765324 26048
SITRO-AIS 26            
1 59067U 24039S   24236.20104610  .00008285  00000+0  77373-3 0  9998
2 59067  95.3979 142.7677 0171546 112.1508 249.8019 14.83712972 26046
SITRO-AIS 27            
1 59068U 24039T   24236.18394684  .00009464  00000+0  87976-3 0  9998
2 59068  95.3983 142.7876 0171145 111.9827 249.9678 14.83911639 26042
SITRO-AIS 28            
1 59071U 24039U   24236.17949666  .00009127  00000+0  84801-3 0  9997
2 59071  95.3984 142.7935 0170997 111.9627 249.9864 14.83951035 26046
GRBBETA                 
1 60237U 24128C   24235.74523053  .00009087  00000+0  79116-3 0  9990
2 60237  61.9965   9.8493 0013617 319.3637  40.6434 14.97434557  6566
OOV-CUBE (TUBSAT-30)    
1 60240U 24128F   24235.76273032  .00006496  00000+0  58108-3 0  9994
2 60240  61.9999   9.9519 0012218 306.9071  53.0897 14.96733773  6570
ROBUSTA-3A (MEDITERRAN*)
1 60243U 24128J   24236.17753668  .00013898  00000+0  12271-2 0  9995
2 60243  61.9939   8.5937 0014200 294.7843  65.1767 14.96564282  6634
